[{"OBJECT_NAME":"STARLINK-31946","OBJECT_ID":"2024-106U","EPOCH":"2026-03-09T03:16:02.865792","MEAN_MOTION":15.27581519,"ECCENTRICITY":7.356e-5,"INCLINATION":43.0016,"RA_OF_ASC_NODE":336.0354,"ARG_OF_PERICENTER":313.8976,"MEAN_ANOMALY":46.1815,"EPHEMERIS_TYPE":0,"CLASSIFICATION_TYPE":"U","NORAD_CAT_ID":59940,"ELEMENT_SET_NO":999,"REV_AT_EPOCH":9106,"BSTAR":4.9804081e-5,"MEAN_MOTION_DOT":1.109e-5,"MEAN_MOTION_DDOT":0},{"OBJECT_NAME":"DMSP 5D-2 F13 DEB","OBJECT_ID":"1995-015HL","EPOCH":"2026-02-09T02:06:19.247328","MEAN_MOTION":15.12822218,"ECCENTRICITY":0.00117732,"INCLINATION":98.8603,"RA_OF_ASC_NODE":96.8879,"ARG_OF_PERICENTER":223.037,"MEAN_ANOMALY":136.9936,"EPHEMERIS_TYPE":0,"CLASSIFICATION_TYPE":"U","NORAD_CAT_ID":42294,"ELEMENT_SET_NO":999,"REV_AT_EPOCH":55633,"BSTAR":0.010466292,"MEAN_MOTION_DOT":0.00188804,"MEAN_MOTION_DDOT":0}]
